[{"OBJECT_NAME":"SKYSAT-A","OBJECT_ID":"2013-066C","EPOCH":"2026-03-09T23:11:31.147872","MEAN_MOTION":15.12354605,"ECCENTRICITY":0.00202509,"INCLINATION":97.395,"RA_OF_ASC_NODE":121.5014,"ARG_OF_PERICENTER":299.3966,"MEAN_ANOMALY":60.5243,"EPHEMERIS_TYPE":0,"CLASSIFICATION_TYPE":"U","NORAD_CAT_ID":39418,"ELEMENT_SET_NO":999,"REV_AT_EPOCH":67348,"BSTAR":0.0002547658,"MEAN_MOTION_DOT":4.374e-5,"MEAN_MOTION_DDOT":0},{"OBJECT_NAME":"STARLINK-5045","OBJECT_ID":"2022-119Q","EPOCH":"2026-03-09T23:32:37.338144","MEAN_MOTION":15.08825167,"ECCENTRICITY":0.00012746,"INCLINATION":53.2201,"RA_OF_ASC_NODE":322.4523,"ARG_OF_PERICENTER":94.5813,"MEAN_ANOMALY":265.5325,"EPHEMERIS_TYPE":0,"CLASSIFICATION_TYPE":"U","NORAD_CAT_ID":53900,"ELEMENT_SET_NO":999,"REV_AT_EPOCH":19173,"BSTAR":1.1409143e-5,"MEAN_MOTION_DOT":-1.06e-6,"MEAN_MOTION_DDOT":0}]
